{"type": "FeatureCollection", "features": [ {"type": "Feature", "properties": {"norad_id": 36011, "name": "IRIDIUM 33 DEB", "group": "iridium-33-debris", "lat": -73.24028608511809, "lon": -131.7215900005292, "alt_km": 751.0478675294462, "timestamp": "2025-12-11T08:58:27.510858+00:00", "meta": {"OBJECT_NAME": "IRIDIUM 33 DEB", "OBJECT_ID": "1997-051US", "EPOCH": "2025-12-10T10:24:05.252832", "MEAN_MOTION": 14.41318738, "ECCENTRICITY": 0.00174211, "INCLINATION": 86.3414, "RA_OF_ASC_NODE": 36.4155, "ARG_OF_PERICENTER": 224.1593, "MEAN_ANOMALY": 192.2248, "EPHEMERIS_TYPE": 0, "CLASSIFICATION_TYPE": "U", "NORAD_CAT_ID": 36011, "ELEMENT_SET_NO": 999, "REV_AT_EPOCH": 64507, "BSTAR": 0.00072135893, "MEAN_MOTION_DOT": 2.356e-05, "MEAN_MOTION_DDOT": 0}, "tle": {"line1": "1 36011U 97051US  25344.43339413  .00002356  00000+0  72136-3 0  9998", "line2": "2 36011  86.3414  36.4155 0017421 224.1593 192.2248 14.41318738645074"}}, "geometry": {"type": "Point", "coordinates": [-131.7215900005292, -73.24028608511809]}}, {"type": "Feature", "properties": {"norad_id": 36012, "name": "IRIDIUM 33 DEB", "group": "iridium-33-debris", "lat": -70.74419230542519, "lon": -62.17167025816569, "alt_km": 693.3097499176592, "timestamp": "2025-12-11T08:58:27.510868+00:00", "meta": {"OBJECT_NAME": "IRIDIUM 33 DEB", "OBJECT_ID": "1997-051UT", "EPOCH": "2025-12-09T14:59:18.724128", "MEAN_MOTION": 14.18848487, "ECCENTRICITY": 0.0212452, "INCLINATION": 86.4428, "RA_OF_ASC_NODE": 308.7902, "ARG_OF_PERICENTER": 273.2722, "MEAN_ANOMALY": 84.4182, "EPHEMERIS_TYPE": 0, "CLASSIFICATION_TYPE": "U", "NORAD_CAT_ID": 36012, "ELEMENT_SET_NO": 999, "REV_AT_EPOCH": 65440, "BSTAR": 0.0096093, "MEAN_MOTION_DOT": 0.00025103, "MEAN_MOTION_DDOT": 0}, "tle": {"line1": "1 36012U 97051UT  25343.62452227  .00025103  00000+0  96093-2 0  9990", "line2": "2 36012  86.4428 308.7902 0212452 273.2722  84.4182 14.18848487654405"}}, "geometry": {"type": "Point", "coordinates": [-62.17167025816569, -70.74419230542519]}}, {"type": "Feature", "properties": {"norad_id": 36028, "name": "IRIDIUM 33 DEB", "group": "iridium-33-debris", "lat": -4.206299860080705, "lon": -52.93033734055217, "alt_km": 578.1775591182704, "timestamp": "2025-12-11T08:58:27.510879+00:00", "meta": {"OBJECT_NAME": "IRIDIUM 33 DEB", "OBJECT_ID": "1997-051VK", "EPOCH": "2025-12-11T04:10:27.703200", "MEAN_MOTION": 14.95164373, "ECCENTRICITY": 0.0021851, "INCLINATION": 86.3224, "RA_OF_ASC_NODE": 307.4347, "ARG_OF_PERICENTER": 58.0389, "MEAN_ANOMALY": 302.296, "EPHEMERIS_TYPE": 0, "CLASSIFICATION_TYPE": "U", "NORAD_CAT_ID": 36028, "ELEMENT_SET_NO": 999, "REV_AT_EPOCH": 87101, "BSTAR": 0.0035199, "MEAN_MOTION_DOT": 0.00039008, "MEAN_MOTION_DDOT": 0}, "tle": {"line1": "1 36028U 97051VK  25345.17393175  .00039008  00000+0  35199-2 0  9994", "line2": "2 36028  86.3224 307.4347 0021851  58.0389 302.2960 14.95164373871016"}}, "geometry": {"type": "Point", "coordinates": [-52.93033734055217, -4.206299860080705]}}, {"type": "Feature", "properties": {"norad_id": 36080, "name": "IRIDIUM 33 DEB", "group": "iridium-33-debris", "lat": 85.20097015879182, "lon": 138.52855521035173, "alt_km": 724.477480066199, "timestamp": "2025-12-11T08:58:27.510890+00:00", "meta": {"OBJECT_NAME": "IRIDIUM 33 DEB", "OBJECT_ID": "1997-051VM", "EPOCH": "2025-12-09T08:24:04.128192", "MEAN_MOTION": 14.46584309, "ECCENTRICITY": 0.0017863, "INCLINATION": 86.3197, "RA_OF_ASC_NODE": 9.4635, "ARG_OF_PERICENTER": 167.4902, "MEAN_ANOMALY": 192.6748, "EPHEMERIS_TYPE": 0, "CLASSIFICATION_TYPE": "U", "NORAD_CAT_ID": 36080, "ELEMENT_SET_NO": 999, "REV_AT_EPOCH": 47365, "BSTAR": 0.0010095558, "MEAN_MOTION_DOT": 3.665e-05, "MEAN_MOTION_DDOT": 0}, "tle": {"line1": "1 36080U 97051VM  25343.35004778  .00003665  00000+0  10096-2 0  9997", "line2": "2 36080  86.3197   9.4635 0017863 167.4902 192.6748 14.46584309473650"}}, "geometry": {"type": "Point", "coordinates": [138.52855521035173, 85.20097015879182]}}, {"type": "Feature", "properties": {"norad_id": 36083, "name": "IRIDIUM 33 DEB", "group": "iridium-33-debris", "lat": -22.0392123029184, "lon": -143.77463403726986, "alt_km": 737.5564599326117, "timestamp": "2025-12-11T08:58:27.510901+00:00", "meta": {"OBJECT_NAME": "IRIDIUM 33 DEB", "OBJECT_ID": "1997-051VQ", "EPOCH": "2025-12-06T21:32:26.892672", "MEAN_MOTION": 14.43175138, "ECCENTRICITY": 0.00247889, "INCLINATION": 86.3442, "RA_OF_ASC_NODE": 36.6683, "ARG_OF_PERICENTER": 243.3344, "MEAN_ANOMALY": 116.5319, "EPHEMERIS_TYPE": 0, "CLASSIFICATION_TYPE": "U", "NORAD_CAT_ID": 36083, "ELEMENT_SET_NO": 999, "REV_AT_EPOCH": 85365, "BSTAR": 0.00098432537, "MEAN_MOTION_DOT": 3.337e-05, "MEAN_MOTION_DDOT": 0}, "tle": {"line1": "1 36083U 97051VQ  25340.89753348  .00003337  00000+0  98433-3 0  9998", "line2": "2 36083  86.3442  36.6683 0024788 243.3344 116.5319 14.43175138853653"}}, "geometry": {"type": "Point", "coordinates": [-143.77463403726986, -22.0392123029184]}}, {"type": "Feature", "properties": {"norad_id": 36390, "name": "IRIDIUM 33 DEB", "group": "iridium-33-debris", "lat": -51.5546661319492, "lon": 124.70549050234257, "alt_km": 647.7615480850709, "timestamp": "2025-12-11T08:58:27.510911+00:00", "meta": {"OBJECT_NAME": "IRIDIUM 33 DEB", "OBJECT_ID": "1997-051VU", "EPOCH": "2025-12-10T04:13:18.491808", "MEAN_MOTION": 14.73548967, "ECCENTRICITY": 0.00303441, "INCLINATION": 86.2912, "RA_OF_ASC_NODE": 300.5678, "ARG_OF_PERICENTER": 170.4809, "MEAN_ANOMALY": 189.6991, "EPHEMERIS_TYPE": 0, "CLASSIFICATION_TYPE": "U", "NORAD_CAT_ID": 36390, "ELEMENT_SET_NO": 999, "REV_AT_EPOCH": 66224, "BSTAR": 0.0016206136, "MEAN_MOTION_DOT": 0.00010646, "MEAN_MOTION_DDOT": 0}, "tle": {"line1": "1 36390U 97051VU  25344.17590847  .00010646  00000+0  16206-2 0  9995", "line2": "2 36390  86.2912 300.5678 0030344 170.4809 189.6991 14.73548967662240"}}, "geometry": {"type": "Point", "coordinates": [124.70549050234257, -51.5546661319492]}}, {"type": "Feature", "properties": {"norad_id": 36483, "name": "IRIDIUM 33 DEB", "group": "iridium-33-debris", "lat": -7.325342780643178, "lon": 52.60722491136173, "alt_km": 749.0455598486869, "timestamp": "2025-12-11T08:58:27.510921+00:00", "meta": {"OBJECT_NAME": "IRIDIUM 33 DEB", "OBJECT_ID": "1997-051VZ", "EPOCH": "2025-12-10T11:24:52.773984", "MEAN_MOTION": 14.45797209, "ECCENTRICITY": 0.00110254, "INCLINATION": 86.3794, "RA_OF_ASC_NODE": 53.458, "ARG_OF_PERICENTER": 132.1914, "MEAN_ANOMALY": 228.0226, "EPHEMERIS_TYPE": 0, "CLASSIFICATION_TYPE": "U", "NORAD_CAT_ID": 36483, "ELEMENT_SET_NO": 999, "REV_AT_EPOCH": 65113, "BSTAR": 0.00078050397, "MEAN_MOTION_DOT": 2.789e-05, "MEAN_MOTION_DDOT": 0}, "tle": {"line1": "1 36483U 97051VZ  25344.47561081  .00002789  00000+0  78050-3 0  9994", "line2": "2 36483  86.3794  53.4580 0011025 132.1914 228.0226 14.45797209651134"}}, "geometry": {"type": "Point", "coordinates": [52.60722491136173, -7.325342780643178]}}, {"type": "Feature", "properties": {"norad_id": 36490, "name": "IRIDIUM 33 DEB", "group": "iridium-33-debris", "lat": 78.65907706982478, "lon": 172.60401791170113, "alt_km": 630.5392304853385, "timestamp": "2025-12-11T08:58:27.510931+00:00", "meta": {"OBJECT_NAME": "IRIDIUM 33 DEB", "OBJECT_ID": "1997-051WG", "EPOCH": "2025-12-10T08:06:56.843424", "MEAN_MOTION": 14.76107683, "ECCENTRICITY": 0.000555, "INCLINATION": 86.3658, "RA_OF_ASC_NODE": 11.546, "ARG_OF_PERICENTER": 88.8024, "MEAN_ANOMALY": 271.3831, "EPHEMERIS_TYPE": 0, "CLASSIFICATION_TYPE": "U", "NORAD_CAT_ID": 36490, "ELEMENT_SET_NO": 999, "REV_AT_EPOCH": 86449, "BSTAR": 0.0023364, "MEAN_MOTION_DOT": 0.00016171, "MEAN_MOTION_DDOT": 0}, "tle": {"line1": "1 36490U 97051WG  25344.33815791  .00016171  00000+0  23364-2 0  9994", "line2": "2 36490  86.3658  11.5460 0005550  88.8024 271.3831 14.76107683864491"}}, "geometry": {"type": "Point", "coordinates": [172.60401791170113, 78.65907706982478]}}, {"type": "Feature", "properties": {"norad_id": 36493, "name": "IRIDIUM 33 DEB", "group": "iridium-33-debris", "lat": 76.75193456113838, "lon": 27.98665443640735, "alt_km": 666.4640379906259, "timestamp": "2025-12-11T08:58:27.510942+00:00", "meta": {"OBJECT_NAME": "IRIDIUM 33 DEB", "OBJECT_ID": "1997-051WK", "EPOCH": "2025-12-10T19:30:39.824352", "MEAN_MOTION": 14.6519132, "ECCENTRICITY": 0.00104457, "INCLINATION": 86.3571, "RA_OF_ASC_NODE": 12.5357, "ARG_OF_PERICENTER": 11.652, "MEAN_ANOMALY": 348.4933, "EPHEMERIS_TYPE": 0, "CLASSIFICATION_TYPE": "U", "NORAD_CAT_ID": 36493, "ELEMENT_SET_NO": 999, "REV_AT_EPOCH": 74490, "BSTAR": 0.0018600988, "MEAN_MOTION_DOT": 0.00010041, "MEAN_MOTION_DDOT": 0}, "tle": {"line1": "1 36493U 97051WK  25344.81296093  .00010041  00000+0  18601-2 0  9996", "line2": "2 36493  86.3571  12.5357 0010445  11.6520 348.4933 14.65191320744909"}}, "geometry": {"type": "Point", "coordinates": [27.98665443640735, 76.75193456113838]}}, {"type": "Feature", "properties": {"norad_id": 37548, "name": "IRIDIUM 33 DEB", "group": "iridium-33-debris", "lat": -27.1813247155709, "lon": 42.084524024852314, "alt_km": 740.9740545943241, "timestamp": "2025-12-11T08:58:27.510952+00:00", "meta": {"OBJECT_NAME": "IRIDIUM 33 DEB", "OBJECT_ID": "1997-051XH", "EPOCH": "2025-12-10T21:30:59.995872", "MEAN_MOTION": 14.51276893, "ECCENTRICITY": 0.0025313, "INCLINATION": 86.3513, "RA_OF_ASC_NODE": 44.17, "ARG_OF_PERICENTER": 194.8863, "MEAN_ANOMALY": 165.16, "EPHEMERIS_TYPE": 0, "CLASSIFICATION_TYPE": "U", "NORAD_CAT_ID": 37548, "ELEMENT_SET_NO": 999, "REV_AT_EPOCH": 65505, "BSTAR": 0.0015557, "MEAN_MOTION_DOT": 6.233e-05, "MEAN_MOTION_DDOT": 0}, "tle": {"line1": "1 37548U 97051XH  25344.89652773  .00006233  00000+0  15557-2 0  9992", "line2": "2 37548  86.3513  44.1700 0025313 194.8863 165.1600 14.51276893655050"}}, "geometry": {"type": "Point", "coordinates": [42.084524024852314, -27.1813247155709]}}]}